[{"OBJECT_NAME":"TIANMU-1 20","OBJECT_ID":"2023-208B","EPOCH":"2026-03-09T21:50:45.859200","MEAN_MOTION":15.31029249,"ECCENTRICITY":0.00061925,"INCLINATION":97.4323,"RA_OF_ASC_NODE":185.4313,"ARG_OF_PERICENTER":324.1763,"MEAN_ANOMALY":35.9062,"EPHEMERIS_TYPE":0,"CLASSIFICATION_TYPE":"U","NORAD_CAT_ID":58661,"ELEMENT_SET_NO":999,"REV_AT_EPOCH":12222,"BSTAR":0.0003681641,"MEAN_MOTION_DOT":0.00010969,"MEAN_MOTION_DDOT":0},{"OBJECT_NAME":"STARLINK-35983","OBJECT_ID":"2025-283AA","EPOCH":"2026-03-09T07:05:30.800832","MEAN_MOTION":15.30251187,"ECCENTRICITY":0.00014748,"INCLINATION":53.1604,"RA_OF_ASC_NODE":26.005,"ARG_OF_PERICENTER":56.685,"MEAN_ANOMALY":303.4292,"EPHEMERIS_TYPE":0,"CLASSIFICATION_TYPE":"U","NORAD_CAT_ID":66902,"ELEMENT_SET_NO":999,"REV_AT_EPOCH":1578,"BSTAR":0.0010750299,"MEAN_MOTION_DOT":0.00031666,"MEAN_MOTION_DDOT":0}]
